OBJECT_NAME,OBJECT_ID,EPOCH,MEAN_MOTION,ECCENTRICITY,INCLINATION,RA_OF_ASC_NODE,ARG_OF_PERICENTER,MEAN_ANOMALY,EPHEMERIS_TYPE,CLASSIFICATION_TYPE,NORAD_CAT_ID,ELEMENT_SET_NO,REV_AT_EPOCH,BSTAR,MEAN_MOTION_DOT,MEAN_MOTION_DDOT
STARLINK-37636,2026-110V,2026-06-05T03:55:01.600608,15.80856577,.0001241,97.2846,352.4036,99.1224,261.0184,0,U,69143,999,374,.76378E-3,.148957E-2,0
STARLINK-37638,2026-110W,2026-06-05T03:53:56.664096,15.80896970,.0001507,97.2844,352.4045,71.2645,288.8787,0,U,69144,999,374,.12555E-2,.248241E-2,0
STARLINK-37657,2026-110X,2026-06-05T02:00:04.000032,15.75653782,.0001657,97.2856,352.3151,103.6038,156.4832,0,U,69145,999,376,-.19369E-1,-.2518337E-1,0
STARLINK-37639,2026-110Y,2026-06-05T02:20:37.538880,15.80854356,.0001581,97.2846,352.3397,112.7378,247.4057,0,U,69146,999,373,.72861E-3,.141965E-2,0
STARLINK-37661,2026-110Z,2026-06-05T02:00:04.000032,15.69459133,.000188,97.2855,352.3048,102.4901,134.4357,0,U,69147,999,376,-.25519E-1,-.2601121E-1,0
STARLINK-37395,2026-111A,2026-06-05T02:00:04.000032,15.80852170,.0001541,53.1581,212.3203,84.3605,357.2555,0,U,69148,999,360,.75214E-4,.14156E-3,0
STARLINK-37346,2026-111B,2026-06-05T02:00:04.000032,15.80794417,.0000799,53.1581,212.3081,66.9902,20.5842,0,U,69149,999,360,.75176E-3,.149727E-2,0
STARLINK-37332,2026-111C,2026-06-05T02:00:04.000032,15.80831876,.0001052,53.1635,212.2917,81.0888,14.2484,0,U,69150,999,360,.36979E-3,.72763E-3,0
STARLINK-37297,2026-111D,2026-06-05T02:00:04.000032,15.80828388,.0001355,53.1636,212.3055,72.0102,16.7855,0,U,69151,999,360,.47025E-3,.92925E-3,0
STARLINK-37317,2026-111E,2026-06-05T02:00:04.000032,15.80794605,.0001276,53.1581,212.2821,102.8712,357.1180,0,U,69152,999,360,.71463E-3,.142176E-2,0
STARLINK-37374,2026-111F,2026-06-05T02:00:04.000032,15.80863192,.0001073,53.1631,212.2646,94.1969,14.0264,0,U,69153,999,360,.22467E-3,.43849E-3,0
STARLINK-37235,2026-111G,2026-06-05T02:00:04.000032,15.80819699,.0001388,53.1583,212.2722,54.8042,49.7961,0,U,69154,999,360,.51574E-3,.102051E-2,0
STARLINK-37329,2026-111H,2026-06-05T02:00:04.000032,15.80857371,.0001036,53.1634,212.2873,80.0689,17.3297,0,U,69155,999,360,.32202E-3,.63277E-3,0
STARLINK-37345,2026-111J,2026-06-05T02:00:04.000032,15.80815004,.0001376,53.1583,212.2705,49.0525,56.5981,0,U,69156,999,360,.55177E-3,.109297E-2,0
STARLINK-37353,2026-111K,2026-06-05T02:00:04.000032,15.80850781,.0001,53.1582,212.2677,82.2095,24.6655,0,U,69157,999,360,.84397E-4,.15972E-3,0
STARLINK-37363,2026-111L,2026-06-05T02:00:04.000032,15.80804888,.0001073,53.1582,212.2432,89.3546,29.2313,0,U,69158,999,360,.12286E-2,.248101E-2,0
STARLINK-37343,2026-111M,2026-06-05T02:00:04.000032,15.80850256,.0001164,53.1583,212.2344,83.7904,39.1927,0,U,69159,999,360,.30387E-3,.59628E-3,0
STARLINK-37328,2026-111N,2026-06-05T02:00:04.000032,15.80759228,.0000839,53.1584,212.2413,107.4352,11.8860,0,U,69160,999,360,.13653E-2,.276108E-2,0
STARLINK-37311,2026-111P,2026-06-05T02:00:04.000032,15.80867145,.000106,53.1583,212.2285,113.8660,11.7985,0,U,69161,999,360,-.78767E-3,-.153392E-2,0
STARLINK-36286,2026-111Q,2026-06-05T02:00:04.000032,15.80783971,.0001147,53.1583,212.2196,113.0475,16.8769,0,U,69162,999,360,.82334E-3,.16425E-2,0
STARLINK-37196,2026-111R,2026-06-05T02:00:04.000032,15.77988894,.0000741,53.1586,212.2181,105.8968,24.5988,0,U,69163,999,360,.77376E-3,.135423E-2,0
STARLINK-36288,2026-111S,2026-06-05T02:00:04.000032,15.77999219,.0000852,53.1586,212.2082,100.7411,34.3694,0,U,69164,999,360,.58776E-3,.102356E-2,0
STARLINK-37445,2026-111T,2026-06-05T02:00:04.000032,15.80779383,.0001139,53.1581,212.1961,110.7483,30.6061,0,U,69165,999,360,.88332E-3,.176482E-2,0
STARLINK-37491,2026-111U,2026-06-05T02:00:04.000032,15.78019824,.0001173,53.1584,212.1990,86.9576,52.6518,0,U,69166,999,360,.37569E-3,.64956E-3,0
STARLINK-37474,2026-111V,2026-06-05T02:00:04.000032,15.77991413,.0001054,53.1584,212.1690,96.6684,57.4939,0,U,69167,999,360,.47048E-3,.81569E-3,0
STARLINK-37469,2026-111W,2026-06-05T02:00:04.000032,15.80791993,.0001043,53.1582,212.1543,87.7038,73.7232,0,U,69168,999,360,.70781E-3,.140771E-2,0
STARLINK-37515,2026-111X,2026-06-05T02:00:04.000032,15.78044333,.0000642,53.1588,212.1499,94.0637,69.3997,0,U,69169,999,360,.70217E-4,.11535E-3,0
STARLINK-37437,2026-111Y,2026-06-05T02:00:04.000032,15.80808084,.0001032,53.1582,212.1390,76.5916,91.8265,0,U,69170,999,360,.68469E-3,.136178E-2,0
STARLINK-37392,2026-111Z,2026-06-05T02:00:04.000032,15.80813709,.0001312,53.1583,212.0912,130.3092,61.0140,0,U,69171,999,360,.5177E-3,.102416E-2,0
STARLINK-37472,2026-111AA,2026-06-05T02:00:04.000032,15.80789827,.0001094,53.1584,212.0822,112.9330,82.6679,0,U,69172,999,360,.82391E-3,.164413E-2,0
