[ {"name": "STARLINK-37636", "line1": "1 69143U 26110V   26156.16321297  .00148957  00000+0  76378-3 0  9991", "line2": "2 69143  97.2846 352.4036 0001241  99.1224 261.0184 15.80856577  3747"}, {"name": "STARLINK-37638", "line1": "1 69144U 26110W   26156.16246139  .00248241  00000+0  12555-2 0  9996", "line2": "2 69144  97.2844 352.4045 0001507  71.2645 288.8787 15.80896970  3746"}, {"name": "STARLINK-37657", "line1": "1 69145U 26110X   26156.08337963 -.02518337  00000+0 -19369-1 0  9993", "line2": "2 69145  97.2856 352.3151 0001657 103.6038 156.4832 15.75653782  3768"}, {"name": "STARLINK-37639", "line1": "1 69146U 26110Y   26156.09765670  .00141965  00000+0  72861-3 0  9998", "line2": "2 69146  97.2846 352.3397 0001581 112.7378 247.4057 15.80854356  3737"}, {"name": "STARLINK-37661", "line1": "1 69147U 26110Z   26156.08337963 -.02601121  00000+0 -25519-1 0  9993", "line2": "2 69147  97.2855 352.3048 0001880 102.4901 134.4357 15.69459133  3763"}, {"name": "STARLINK-37395", "line1": "1 69148U 26111A   26156.08337963  .00014156  00000+0  75214-4 0  9997", "line2": "2 69148  53.1581 212.3203 0001541  84.3605 357.2555 15.80852170  3601"}, {"name": "STARLINK-37346", "line1": "1 69149U 26111B   26156.08337963  .00149727  00000+0  75176-3 0  9997", "line2": "2 69149  53.1581 212.3081 0000799  66.9902  20.5842 15.80794417  3604"}, {"name": "STARLINK-37332", "line1": "1 69150U 26111C   26156.08337963  .00072763  00000+0  36979-3 0  9992", "line2": "2 69150  53.1635 212.2917 0001052  81.0888  14.2484 15.80831876  3600"}, {"name": "STARLINK-37297", "line1": "1 69151U 26111D   26156.08337963  .00092925  00000+0  47025-3 0  9999", "line2": "2 69151  53.1636 212.3055 0001355  72.0102  16.7855 15.80828388  3604"}, {"name": "STARLINK-37317", "line1": "1 69152U 26111E   26156.08337963  .00142176  00000+0  71463-3 0  9997", "line2": "2 69152  53.1581 212.2821 0001276 102.8712 357.1180 15.80794605  3602"}, {"name": "STARLINK-37374", "line1": "1 69153U 26111F   26156.08337963  .00043849  00000+0  22467-3 0  9995", "line2": "2 69153  53.1631 212.2646 0001073  94.1969  14.0264 15.80863192  3606"}, {"name": "STARLINK-37235", "line1": "1 69154U 26111G   26156.08337963  .00102051  00000+0  51574-3 0  9998", "line2": "2 69154  53.1583 212.2722 0001388  54.8042  49.7961 15.80819699  3604"}, {"name": "STARLINK-37329", "line1": "1 69155U 26111H   26156.08337963  .00063277  00000+0  32202-3 0  9992", "line2": "2 69155  53.1634 212.2873 0001036  80.0689  17.3297 15.80857371  3609"}, {"name": "STARLINK-37345", "line1": "1 69156U 26111J   26156.08337963  .00109297  00000+0  55177-3 0  9992", "line2": "2 69156  53.1583 212.2705 0001376  49.0525  56.5981 15.80815004  3600"}, {"name": "STARLINK-37353", "line1": "1 69157U 26111K   26156.08337963  .00015972  00000+0  84397-4 0  9996", "line2": "2 69157  53.1582 212.2677 0001000  82.2095  24.6655 15.80850781  3608"}, {"name": "STARLINK-37363", "line1": "1 69158U 26111L   26156.08337963  .00248101  00000+0  12286-2 0  9995", "line2": "2 69158  53.1582 212.2432 0001073  89.3546  29.2313 15.80804888  3606"}, {"name": "STARLINK-37343", "line1": "1 69159U 26111M   26156.08337963  .00059628  00000+0  30387-3 0  9993", "line2": "2 69159  53.1583 212.2344 0001164  83.7904  39.1927 15.80850256  3608"}, {"name": "STARLINK-37328", "line1": "1 69160U 26111N   26156.08337963  .00276108  00000+0  13653-2 0  9995", "line2": "2 69160  53.1584 212.2413 0000839 107.4352  11.8860 15.80759228  3607"}, {"name": "STARLINK-37311", "line1": "1 69161U 26111P   26156.08337963 -.00153392  00000+0 -78767-3 0  9995", "line2": "2 69161  53.1583 212.2285 0001060 113.8660  11.7985 15.80867145  3609"}, {"name": "STARLINK-36286", "line1": "1 69162U 26111Q   26156.08337963  .00164250  00000+0  82334-3 0  9994", "line2": "2 69162  53.1583 212.2196 0001147 113.0475  16.8769 15.80783971  3603"}, {"name": "STARLINK-37196", "line1": "1 69163U 26111R   26156.08337963  .00135423  00000+0  77376-3 0  9995", "line2": "2 69163  53.1586 212.2181 0000741 105.8968  24.5988 15.77988894  3602"}, {"name": "STARLINK-36288", "line1": "1 69164U 26111S   26156.08337963  .00102356  00000+0  58776-3 0  9998", "line2": "2 69164  53.1586 212.2082 0000852 100.7411  34.3694 15.77999219  3609"}, {"name": "STARLINK-37445", "line1": "1 69165U 26111T   26156.08337963  .00176482  00000+0  88332-3 0  9991", "line2": "2 69165  53.1581 212.1961 0001139 110.7483  30.6061 15.80779383  3608"}, {"name": "STARLINK-37491", "line1": "1 69166U 26111U   26156.08337963  .00064956  00000+0  37569-3 0  9990", "line2": "2 69166  53.1584 212.1990 0001173  86.9576  52.6518 15.78019824  3604"}, {"name": "STARLINK-37474", "line1": "1 69167U 26111V   26156.08337963  .00081569  00000+0  47048-3 0  9993", "line2": "2 69167  53.1584 212.1690 0001054  96.6684  57.4939 15.77991413  3600"}, {"name": "STARLINK-37469", "line1": "1 69168U 26111W   26156.08337963  .00140771  00000+0  70781-3 0  9995", "line2": "2 69168  53.1582 212.1543 0001043  87.7038  73.7232 15.80791993  3600"}, {"name": "STARLINK-37515", "line1": "1 69169U 26111X   26156.08337963  .00011535  00000+0  70217-4 0  9996", "line2": "2 69169  53.1588 212.1499 0000642  94.0637  69.3997 15.78044333  3602"}, {"name": "STARLINK-37437", "line1": "1 69170U 26111Y   26156.08337963  .00136178  00000+0  68469-3 0  9994", "line2": "2 69170  53.1582 212.1390 0001032  76.5916  91.8265 15.80808084  3609"}, {"name": "STARLINK-37392", "line1": "1 69171U 26111Z   26156.08337963  .00102416  00000+0  51770-3 0  9990", "line2": "2 69171  53.1583 212.0912 0001312 130.3092  61.0140 15.80813709  3606"}, {"name": "STARLINK-37472", "line1": "1 69172U 26111AA  26156.08337963  .00164413  00000+0  82391-3 0  9999", "line2": "2 69172  53.1584 212.0822 0001094 112.9330  82.6679 15.80789827  3605"}]